*******************************************************************************
JPL/HORIZONS                 96 Aegle (A868 DA)            2020-Jun-20 08:08:46
Rec #:      96 (+COV) Soln.date: 2020-Feb-22_15:17:03   # obs: 2410 (1868-2019)
 
IAU76/J2000 helio. ecliptic osc. elements (au, days, deg., period=Julian yrs):
 
  EPOCH=  2454522.5 ! 2008-Feb-26.00 (TDB)         Residual RMS= .23546
   EC= .1321319536569484   QR= 2.655648388964046   TP= 2454129.9808137771
   OM= 321.7778223595307   W=  207.3169050646347   IN= 15.93826214383477
   A= 3.059967929634224    MA= 72.2752581331532    ADIST= 3.464287470304401
   PER= 5.35283            N= .184131779           ANGMOM= .02982739
   DAN= 3.40645            DDN= 2.69067            L= 168.1894241
   B= -7.2395379           MOID= 1.67382002        TP= 2007-Jan-29.4808137771
 
Asteroid physical parameters (km, seconds, rotational period in hours):
   GM= n.a.                RAD= 88.887             ROTPER= 13.868
   H= 7.7                  G= .150                 B-V= .775
                           ALBEDO= .048            STYP= T
 
ASTEROID comments: 
1: soln ref.= JPL#97, OCC=0
2: source=ORB
*******************************************************************************
 
 
*******************************************************************************
Ephemeris / WWW_USER Sat Jun 20 08:08:46 2020 Pasadena, USA      / Horizons
*******************************************************************************
Target body name: 96 Aegle (A868 DA)              {source: JPL#97}
Center body name: Solar System Barycenter (0)     {source: DE431}
Center-site name: BODY CENTER
*******************************************************************************
Start time      : A.D. 1969-Jun-28 00:00:00.0000 TDB
Stop  time      : A.D. 2071-May-04 00:00:00.0000 TDB
Step-size       : 7200 minutes
*******************************************************************************
Center geodetic : 0.00000000,0.00000000,0.0000000 {E-lon(deg),Lat(deg),Alt(km)}
Center cylindric: 0.00000000,0.00000000,0.0000000 {E-lon(deg),Dxy(km),Dz(km)}
Center radii    : (undefined)                                                  
Small perturbers: Yes                             {source: SB431-N16}
Output units    : AU-D
Output type     : GEOMETRIC cartesian states
Output format   : 2 (position and velocity)
Reference frame : Ecliptic of J2000.0
*******************************************************************************
Initial IAU76/J2000 heliocentric ecliptic osculating elements (au, days, deg.):
  EPOCH=  2454522.5 ! 2008-Feb-26.00 (TDB)         Residual RMS= .23546        
   EC= .1321319536569484   QR= 2.655648388964046   TP= 2454129.9808137771      
   OM= 321.7778223595307   W=  207.3169050646347   IN= 15.93826214383477       
  Equivalent ICRF heliocentric equatorial cartesian coordinates (au, au/d):
   X=-6.389796651291306E-01  Y=-2.292193412712118E+00  Z=-1.806867008683498E+00
  VX= 9.323299607047399E-03 VY=-3.730485281305458E-03 VZ=-7.297975407578416E-04
Asteroid physical parameters (km, seconds, rotational period in hours):        
   GM= n.a.                RAD= 88.887             ROTPER= 13.868              
   H= 7.7                  G= .150                 B-V= .775                   
                           ALBEDO= .048            STYP= T                     
*******************************************************************************
            JDTDB,            Calendar Date (TDB),        delta-T,                      X,                      Y,                      Z,                     VX,                     VY,                     VZ,
******************************************************************************************************************************************************************************************************************
$$SOE
2468400.500000000, A.D. 2046-Feb-24 00:00:00.0000,      69.185278,  1.712447635347236E+00, -2.806591583895591E+00, -3.203998326765042E-01,  8.051978417986145E-03,  3.476061447086903E-03,  2.219175261246599E-03,
2468405.500000000, A.D. 2046-Mar-01 00:00:00.0000,      69.185365,  1.752531055012641E+00, -2.788925010320860E+00, -3.092716009661253E-01,  7.981170416882202E-03,  3.590361353602682E-03,  2.232031976535884E-03,
2468410.500000000, A.D. 2046-Mar-06 00:00:00.0000,      69.185443,  1.792257168423898E+00, -2.770690042285194E+00, -2.980803652001850E-01,  7.909059750178892E-03,  3.703418114887504E-03,  2.244377318827726E-03,
2468415.500000000, A.D. 2046-Mar-11 00:00:00.0000,      69.185511,  1.831619519503770E+00, -2.751892912012947E+00, -2.868286757033102E-01,  7.835669266853177E-03,  3.815225181308265E-03,  2.256213906183786E-03,
2468420.500000000, A.D. 2046-Mar-16 00:00:00.0000,      69.185566,  1.870611765652002E+00, -2.732539883742708E+00, -2.755190696831339E-01,  7.761021509130426E-03,  3.925776294660172E-03,  2.267544366928235E-03,
2468425.500000000, A.D. 2046-Mar-21 00:00:00.0000,      69.185608,  1.909227676217909E+00, -2.712637252302072E+00, -2.641540711850812E-01,  7.685138715061949E-03,  4.035065475451730E-03,  2.278371337224786E-03,
2468430.500000000, A.D. 2046-Mar-26 00:00:00.0000,      69.185637,  1.947461130986433E+00, -2.692191341745227E+00, -2.527361910589946E-01,  7.608042821334823E-03,  4.143087010493926E-03,  2.288697458766973E-03,
2468435.500000000, A.D. 2046-Mar-31 00:00:00.0000,      69.185656,  1.985306118678812E+00, -2.671208504051838E+00, -2.412679269370293E-01,  7.529755466304371E-03,  4.249835440791652E-03,  2.298525376579200E-03,
2468440.500000000, A.D. 2046-Apr-05 00:00:00.0000,      69.185663,  2.022756735468947E+00, -2.649695117885745E+00, -2.297517632222690E-01,  7.450297993235741E-03,  4.355305549721469E-03,  2.307857736926253E-03,
2468445.500000000, A.D. 2046-Apr-10 00:00:00.0000,      69.185659,  2.059807183516440E+00, -2.627657587412101E+00, -2.181901710875261E-01,  7.369691453727186E-03,  4.459492351479830E-03,  2.316697185330099E-03,
2468450.500000000, A.D. 2046-Apr-15 00:00:00.0000,      69.185641,  2.096451769517117E+00, -2.605102341171603E+00, -2.065856084837910E-01,  7.287956611275384E-03,  4.562391079793920E-03,  2.325046364693517E-03,
2468455.500000000, A.D. 2046-Apr-20 00:00:00.0000,      69.185610,  2.132684903271621E+00, -2.582035831010466E+00, -1.949405201577973E-01,  7.205113944921129E-03,  4.663997176919779E-03,  2.332907913530749E-03,
2468460.500000000, A.D. 2046-Apr-25 00:00:00.0000,      69.185567,  2.168501096272355E+00, -2.558464531064619E+00, -1.832573376781693E-01,  7.121183652947833E-03,  4.764306282966736E-03,  2.340284464302228E-03,
2468465.500000000, A.D. 2046-Apr-30 00:00:00.0000,      69.185513,  2.203894960309018E+00, -2.534394936796375E+00, -1.715384794696415E-01,  7.036185656618116E-03,  4.863314225586453E-03,  2.347178641850698E-03,
2468470.500000000, A.D. 2046-May-05 00:00:00.0000,      69.185450,  2.238861206092991E+00, -2.509833564081695E+00, -1.597863508548569E-01,  6.950139603984141E-03,  4.961017010040330E-03,  2.353593061933464E-03,
2468475.500000000, A.D. 2046-May-10 00:00:00.0000,      69.185377,  2.273394641901023E+00, -2.484786948346288E+00, -1.480033441032688E-01,  6.863064873805395E-03,  5.057410809591847E-03,  2.359530329847041E-03,
2468480.500000000, A.D. 2046-May-15 00:00:00.0000,      69.185293,  2.307490172238797E+00, -2.459261643749044E+00, -1.361918384867026E-01,  6.774980579571243E-03,  5.152491956168023E-03,  2.364993039138675E-03,
2468485.500000000, A.D. 2046-May-20 00:00:00.0000,      69.185197,  2.341142796524728E+00, -2.433264222411503E+00, -1.243542003411569E-01,  6.685905573559288E-03,  5.246256931304567E-03,  2.369983770394856E-03,
2468490.500000000, A.D. 2046-May-25 00:00:00.0000,      69.185094,  2.374347607793985E+00, -2.406801273691582E+00, -1.124927831345091E-01,  6.595858450867124E-03,  5.338702357519719E-03,  2.374505090090364E-03,
2468495.500000000, A.D. 2046-May-30 00:00:00.0000,      69.184983,  2.407099791422799E+00, -2.379879403499134E+00, -1.006099275398549E-01,  6.504857553524312E-03,  5.429824990209288E-03,  2.378559549481868E-03,
2468500.500000000, A.D. 2046-Jun-04 00:00:00.0000,      69.184867,  2.439394623873957E+00, -2.352505233651012E+00, -8.870796151427780E-02,  6.412920974886583E-03,  5.519621709902520E-03,  2.382149683544143E-03,
2468505.500000000, A.D. 2046-Jun-09 00:00:00.0000,      69.184745,  2.471227471465125E+00, -2.324685401264458E+00, -7.678920038281067E-02,  6.320066564358467E-03,  5.608089514651493E-03,  2.385278009959755E-03,
2468510.500000000, A.D. 2046-Jun-14 00:00:00.0000,      69.184617,  2.502593789161399E+00, -2.296426558188412E+00, -6.485594692728731E-02,  6.226311932347086E-03,  5.695225512466335E-03,  2.387947028174001E-03,
2468515.500000000, A.D. 2046-Jun-19 00:00:00.0000,      69.184482,  2.533489119392979E+00, -2.267735370472523E+00, -5.291049147974090E-02,  6.131674455339436E-03,  5.781026913811379E-03,  2.390159218522337E-03,
2468520.500000000, A.D. 2046-Jun-24 00:00:00.0000,      69.184345,  2.563909090898388E+00, -2.238618517873426E+00, -4.095511201998001E-02,  6.036171281033699E-03,  5.865491024205816E-03,  2.391917041432993E-03,
2468525.500000000, A.D. 2046-Jun-29 00:00:00.0000,      69.184206,  2.593849417593388E+00, -2.209082693397665E+00, -2.899207427696130E-02,  5.939819333487638E-03,  5.948615236969798E-03,  2.393222936704046E-03,
2468530.500000000, A.D. 2046-Jul-04 00:00:00.0000,      69.184067,  2.623305897465660E+00, -2.179134602880477E+00, -1.702363183359616E-02,  5.842635318267068E-03,  6.030397026143860E-03,  2.394079322852298E-03,
2468535.500000000, A.D. 2046-Jul-09 00:00:00.0000,      69.183928,  2.652274411495188E+00, -2.148780964599489E+00, -5.052026234645894E-03,  5.744635727582865E-03,  6.110833939597230E-03,  2.394488596529640E-03,
